IRIDIUM 119             
1 42959U 17061E   25288.79734754  .00000118  00000+0  35008-4 0  9994
2 42959  86.3945 127.4420 0002416  87.8271 272.3202 14.34218135419781
IRIDIUM 107             
1 42960U 17061F   25288.88614331  .00000136  00000+0  41328-4 0  9996
2 42960  86.3946 127.4246 0002395  78.1155 282.0309 14.34218256419803
IRIDIUM 132             
1 42961U 17061G   25288.89248554  .00000129  00000+0  39086-4 0  9998
2 42961  86.3946 127.4032 0002142  84.2381 275.9059 14.34218115419803
IRIDIUM 136             
1 42962U 17061H   25288.50558744  .00000117  00000+0  34667-4 0  9999
2 42962  86.3946 127.5703 0002272  86.0669 274.0787 14.34218082419769
IRIDIUM 139             
1 42963U 17061J   25288.79100349 -.00000092  00000+0 -39798-4 0  9999
2 42963  86.3951 127.5088 0002048  79.8513 280.2914 14.34217721419817
IRIDIUM 125             
1 42964U 17061K   25288.84808864  .00000137  00000+0  41777-4 0  9991
2 42964  86.3949 127.5417 0002638  82.1787 277.9708 14.34217485419839
IRIDIUM 135             
1 43070U 17083A   25288.82221254  .00000068  00000+0  17212-4 0  9994
2 43070  86.3948  64.1519 0001944  95.1252 265.0165 14.34217789409129
IRIDIUM 138             
1 43071U 17083B   25288.63826963  .00000207  00000+0  67021-4 0  9990
2 43071  86.3959  63.8860 0002533  96.8439 263.3045 14.34215048409086
